<?xml version="1.0"?>
<kml xmlns="http://www.opengis.net/kml/2.2" xmlns:gx="http://www.google.com/kml/ext/2.2"><Document><name>CalTopo Export</name><description>Export from CalTopo</description><Folder><open>1</open><name>Proposed Stake Locations 2024 - High</name><Placemark><Style><IconStyle><hotSpot x="0.5" xunits="fraction" y="0.5" yunits="fraction"/><Icon><href>http://caltopo.com/icon.png?cfg=flag-1%2CFF0000%231.0</href></Icon></IconStyle></Style><description>As a day trip from 26? Or anywhere further down the Llewellyn from 26. If not possible, then put a stake at F10

New light sensor</description><name>LLG Lower</name><Point><coordinates>-134.08676,59.05927,0</coordinates></Point></Placemark><Placemark><Style><IconStyle><hotSpot x="0.5" xunits="fraction" y="0.5" yunits="fraction"/><Icon><href>http://caltopo.com/icon.png?cfg=flag-1%2CFF0000%231.0</href></Icon></IconStyle></Style><description>New light sensor</description><name>LLG2</name><Point><coordinates>-134.09466,58.93407,0</coordinates></Point></Placemark><Placemark><Style><IconStyle><hotSpot x="0.5" xunits="fraction" y="0.5" yunits="fraction"/><Icon><href>http://caltopo.com/icon.png?cfg=flag-1%2CFF0000%231.0</href></Icon></IconStyle></Style><description>New light sensor</description><name>MG 1</name><Point><coordinates>-134.21448,58.72153,0</coordinates></Point></Placemark><Placemark><Style><IconStyle><hotSpot x="0.5" xunits="fraction" y="0.5" yunits="fraction"/><Icon><href>http://caltopo.com/icon.png?cfg=flag-1%2CFF0000%231.0</href></Icon></IconStyle></Style><description>4 m + 4 m + 2 m flagging pole
New light sensor</description><name>TSQG1</name><Point><coordinates>-134.15165,58.85851,0</coordinates></Point></Placemark><Placemark><Style><IconStyle><hotSpot x="0.5" xunits="fraction" y="0.5" yunits="fraction"/><Icon><href>http://caltopo.com/icon.png?cfg=flag-1%2CFF0000%231.0</href></Icon></IconStyle></Style><description>Will play well with micro stations at 8 and 18

4 m + 4 m + 2 m flagging pole
New light sensor</description><name>MG 2</name><Point><coordinates>-134.1925,58.8093,0</coordinates></Point></Placemark><Placemark><Style><IconStyle><hotSpot x="0.5" xunits="fraction" y="0.5" yunits="fraction"/><Icon><href>http://caltopo.com/icon.png?cfg=flag-1%2CFF0000%231.0</href></Icon></IconStyle></Style><description>4 m + 4 m + 2 m flagging pole

New light sensor</description><name>MCG 6</name><Point><coordinates>-134.16779,58.83596,0</coordinates></Point></Placemark><Placemark><Style><IconStyle><hotSpot x="0.5" xunits="fraction" y="0.5" yunits="fraction"/><Icon><href>http://caltopo.com/icon.png?cfg=flag-1%2CFF0000%231.0</href></Icon></IconStyle></Style><description>New light sensor here or TKG 7</description><name>NWB 3</name><Point><coordinates>-134.44794,58.68443,0</coordinates></Point></Placemark><Placemark><Style><IconStyle><hotSpot x="0.5" xunits="fraction" y="0.5" yunits="fraction"/><Icon><href>http://caltopo.com/icon.png?cfg=flag-1%2CFF0000%231.0</href></Icon></IconStyle></Style><description>stake at this site and/or TR 2

If this site isn't possible, anywhere on/around the Southwest Branch would go a long way to fill the gap between C17 and C10.

New light sensor on one of TR 2 or SWB 2</description><name>SWB 2</name><Point><coordinates>-134.23645,58.57147,0</coordinates></Point></Placemark><Placemark><Style><IconStyle><hotSpot x="0.5" xunits="fraction" y="0.5" yunits="fraction"/><Icon><href>http://caltopo.com/icon.png?cfg=flag-1%2CFF0000%231.0</href></Icon></IconStyle></Style><description>stake at this site or SWB 2

New light sensor on one of TR 2 or SWB 2</description><name>TR 2</name><Point><coordinates>-134.32297,58.58866,0</coordinates></Point></Placemark><Placemark><Style><IconStyle><hotSpot x="0.5" xunits="fraction" y="0.5" yunits="fraction"/><Icon><href>http://caltopo.com/icon.png?cfg=flag-1%2CFF0000%231.0</href></Icon></IconStyle></Style><description>New light sensor</description><name>C16 1</name><Point><coordinates>-134.42562,58.63229,0</coordinates></Point></Placemark><Placemark><Style><IconStyle><hotSpot x="0.5" xunits="fraction" y="0.5" yunits="fraction"/><Icon><href>http://caltopo.com/icon.png?cfg=flag-1%2CFF0000%231.0</href></Icon></IconStyle></Style><description>New light sensor</description><name>NWB 2</name><Point><coordinates>-134.54407,58.64372,0</coordinates></Point></Placemark><Placemark><Style><IconStyle><hotSpot x="0.5" xunits="fraction" y="0.5" yunits="fraction"/><Icon><href>http://caltopo.com/icon.png?cfg=flag-1%2CFF0000%231.0</href></Icon></IconStyle></Style><description>Possibly most attainable Taku site. Can be deprioritized if TKG 4 and 5 go.

New light sensor</description><name>TKG 3</name><Point><coordinates>-134.28726,58.65051,0</coordinates></Point></Placemark><Placemark><Style><IconStyle><hotSpot x="0.5" xunits="fraction" y="0.5" yunits="fraction"/><Icon><href>http://caltopo.com/icon.png?cfg=flag-1%2CFF0000%231.0</href></Icon></IconStyle></Style><description>New pendant light sensor on one of Taku A/B. Alternatively, old light sensor on both A/B and new light sensor at C10 with microstation</description><name>TKA</name><Point><coordinates>-134.16092,58.62979,0</coordinates></Point></Placemark><Placemark><Style><IconStyle><hotSpot x="0.5" xunits="fraction" y="0.5" yunits="fraction"/><Icon><href>http://caltopo.com/icon.png?cfg=flag-1%2CFF0000%231.0</href></Icon></IconStyle></Style><description>New pendant light sensor on one of Taku A/B. Alternatively, old light sensor on both A/B and new light sensor at C10 with microstation</description><name>TKB</name><Point><coordinates>-134.18847,58.65739,0</coordinates></Point></Placemark><Placemark><Style><IconStyle><hotSpot x="0.5" xunits="fraction" y="0.5" yunits="fraction"/><Icon><href>http://caltopo.com/icon.png?cfg=flag-1%2CFF0000%231.0</href></Icon></IconStyle></Style><description>Old light sensor</description><name>Heather Camp</name><Point><coordinates>-134.2834,58.8193,0</coordinates></Point></Placemark><Placemark><Style><IconStyle><hotSpot x="0.5" xunits="fraction" y="0.5" yunits="fraction"/><Icon><href>http://caltopo.com/icon.png?cfg=flag-1%2CFF0000%231.0</href></Icon></IconStyle></Style><description>Use old sensors here, but still collect light data from top of pole.</description><name>C8 Moore</name><Point><coordinates>-134.13049,58.80744,0</coordinates></Point></Placemark></Folder><Folder><open>1</open><name>Proposed Stake Locations 2024 - Medium</name><Placemark><Style><IconStyle><hotSpot x="0.5" xunits="fraction" y="0.5" yunits="fraction"/><Icon><href>http://caltopo.com/icon.png?cfg=flag-1%2CF0F000%231.0</href></Icon></IconStyle></Style><description>Ice divide between C16 and upper Mendenhall? Would be an interesting spot and probably pretty safe to access.</description><name>MHG 01</name><Point><coordinates>-134.41086,58.57577,0</coordinates></Point></Placemark><Placemark><Style><IconStyle><hotSpot x="0.5" xunits="fraction" y="0.5" yunits="fraction"/><Icon><href>http://caltopo.com/icon.png?cfg=flag-1%2CF0F000%231.0</href></Icon></IconStyle></Style><description>It would be interesting to know if the airflow through here is substantially different from on the main branch.</description><name>VLG Icefall</name><Point><coordinates>-134.24246,58.83018,0</coordinates></Point></Placemark><Placemark><Style><IconStyle><hotSpot x="0.5" xunits="fraction" y="0.5" yunits="fraction"/><Icon><href>http://caltopo.com/icon.png?cfg=flag-1%2CF0F000%231.0</href></Icon></IconStyle></Style><description>Worth a try because it is one of the index sites</description><name>TKG 4</name><Point><coordinates>-134.24194,58.63622,0</coordinates></Point></Placemark><Placemark><Style><IconStyle><hotSpot x="0.5" xunits="fraction" y="0.5" yunits="fraction"/><Icon><href>http://caltopo.com/icon.png?cfg=flag-1%2CF0F000%231.0</href></Icon></IconStyle></Style><description>Daniel's extracurricular adventure
Single-sensor pole?</description><name>LCG Thomas</name><Point><coordinates>-134.34168,58.41713,0</coordinates></Point></Placemark><Placemark><Style><IconStyle><hotSpot x="0.5" xunits="fraction" y="0.5" yunits="fraction"/><Icon><href>http://caltopo.com/icon.png?cfg=flag-1%2CF0F000%231.0</href></Icon></IconStyle></Style><description>Could be swapped in instead of NWB 3. If so, use new light sensor</description><name>TKG 7</name><Point><coordinates>-134.36897,58.68729,0</coordinates></Point></Placemark><Placemark><Style><IconStyle><hotSpot x="0.5" xunits="fraction" y="0.5" yunits="fraction"/><Icon><href>http://caltopo.com/icon.png?cfg=flag-1%2CF0F000%231.0</href></Icon></IconStyle></Style><description>Daniel's extracurricular adventure pt. 2</description><name>C30 0</name><Point><coordinates>-133.48063,59.43539,0</coordinates></Point></Placemark><Placemark><Style><IconStyle><hotSpot x="0.5" xunits="fraction" y="0.5" yunits="fraction"/><Icon><href>http://caltopo.com/icon.png?cfg=flag-1%2CF0F000%231.0</href></Icon></IconStyle></Style><description>Daniel's extracurricular adventure</description><name>SWB Lower</name><Point><coordinates>-134.32932,58.4674,0</coordinates></Point></Placemark><Placemark><Style><IconStyle><hotSpot x="0.5" xunits="fraction" y="0.5" yunits="fraction"/><Icon><href>http://caltopo.com/icon.png?cfg=flag-1%2CF0F000%231.0</href></Icon></IconStyle></Style><description>Daniel's extracurricular adventure

Avoiding big cracks but hopefully far enough over the ridge to avoid crazy wind and rime 

New light sensor</description><name>SWB Upper</name><Point><coordinates>-134.33164,58.43558,0</coordinates></Point></Placemark><Placemark><Style><IconStyle><hotSpot x="0.5" xunits="fraction" y="0.5" yunits="fraction"/><Icon><href>http://caltopo.com/icon.png?cfg=flag-1%2CF0F000%231.0</href></Icon></IconStyle></Style><description>Daniel's extracurricular adventure pt. 2
</description><name>C30 8</name><Point><coordinates>-133.3754,59.6933,0</coordinates></Point></Placemark><Placemark><Style><IconStyle><hotSpot x="0.5" xunits="fraction" y="0.5" yunits="fraction"/><Icon><href>http://caltopo.com/icon.png?cfg=flag-1%2CF0F000%231.0</href></Icon></IconStyle></Style><description/><name>C29</name><Point><coordinates>-134.10015,59.34212,0</coordinates></Point></Placemark><Placemark><Style><IconStyle><hotSpot x="0.5" xunits="fraction" y="0.5" yunits="fraction"/><Icon><href>http://caltopo.com/icon.png?cfg=flag-1%2CF0F000%231.0</href></Icon></IconStyle></Style><description>More points on the boundary the better

Old light sensor</description><name>LLG 3</name><Point><coordinates>-134.20555,58.90908,0</coordinates></Point></Placemark><Placemark><Style><IconStyle><hotSpot x="0.5" xunits="fraction" y="0.5" yunits="fraction"/><Icon><href>http://caltopo.com/icon.png?cfg=flag-1%2CF0F000%231.0</href></Icon></IconStyle></Style><description>Daniel's extracurricular adventure</description><name>PTG 00</name><Point><coordinates>-134.38004,58.36653,0</coordinates></Point></Placemark><Placemark><Style><IconStyle><hotSpot x="0.5" xunits="fraction" y="0.5" yunits="fraction"/><Icon><href>http://caltopo.com/icon.png?cfg=flag-1%2CF0F000%231.0</href></Icon></IconStyle></Style><description>Old pendant light sensor

One stake on the Demorest would b e interesting. Assume slightly less melt than TKG 4/5</description><name>DG 3</name><Point><coordinates>-134.09088,58.72545,0</coordinates></Point></Placemark></Folder><Folder><open>1</open><name>Stake Locations 2024</name><Placemark><Style><IconStyle><hotSpot x="0.5" xunits="fraction" y="0.5" yunits="fraction"/><Icon><href>http://caltopo.com/icon.png?cfg=flag-1%2C001AFF%231.0</href></Icon></IconStyle></Style><description/><name>LCG-H</name><Point><coordinates>-134.34606,58.37218,0</coordinates></Point></Placemark><Placemark><Style><IconStyle><hotSpot x="0.5" xunits="fraction" y="0.5" yunits="fraction"/><Icon><href>http://caltopo.com/icon.png?cfg=flag-1%2C001AFF%231.0</href></Icon></IconStyle></Style><description/><name>LCG-G</name><Point><coordinates>-134.36086,58.36193,0</coordinates></Point></Placemark></Folder><Folder><open>1</open><name>Proposed Stake Locations 2024 - Low</name><Placemark><Style><IconStyle><hotSpot x="0.5" xunits="fraction" y="0.5" yunits="fraction"/><Icon><href>http://caltopo.com/icon.png?cfg=flag-1%2C00CD00%231.0</href></Icon></IconStyle></Style><description>Daniel's extracurricular adventure pt. 2

Friendly Archie drop?</description><name>C30 6</name><Point><coordinates>-133.85304,59.53528,0</coordinates></Point></Placemark><Placemark><Style><IconStyle><hotSpot x="0.5" xunits="fraction" y="0.5" yunits="fraction"/><Icon><href>http://caltopo.com/icon.png?cfg=flag-1%2C00CD00%231.0</href></Icon></IconStyle></Style><description>Daniel's extracurricular adventure pt. 2

Friendly Archie drop?</description><name>C30 2</name><Point><coordinates>-133.82009,59.43124,0</coordinates></Point></Placemark><Placemark><Style><IconStyle><hotSpot x="0.5" xunits="fraction" y="0.5" yunits="fraction"/><Icon><href>http://caltopo.com/icon.png?cfg=flag-1%2C00CD00%231.0</href></Icon></IconStyle></Style><description>Long-shot access from West Glacier Trail or from the other C16 pit.</description><name>C16 A</name><Point><coordinates>-134.50321,58.59456,0</coordinates></Point></Placemark><Placemark><Style><IconStyle><hotSpot x="0.5" xunits="fraction" y="0.5" yunits="fraction"/><Icon><href>http://caltopo.com/icon.png?cfg=flag-1%2C00CD00%231.0</href></Icon></IconStyle></Style><description>Daniel's extracurricular adventure pt. 2

Friendly Archie drop?</description><name>C30 5</name><Point><coordinates>-133.87124,59.52566,0</coordinates></Point></Placemark><Placemark><Style><IconStyle><hotSpot x="0.5" xunits="fraction" y="0.5" yunits="fraction"/><Icon><href>http://caltopo.com/icon.png?cfg=flag-1%2C00CD00%231.0</href></Icon></IconStyle></Style><description>Daniel's extracurricular adventure pt. 2

Friendly Archie drop?</description><name>C30 4</name><Point><coordinates>-133.87253,59.50815,0</coordinates></Point></Placemark><Placemark><Style><IconStyle><hotSpot x="0.5" xunits="fraction" y="0.5" yunits="fraction"/><Icon><href>http://caltopo.com/icon.png?cfg=flag-1%2C00CD00%231.0</href></Icon></IconStyle></Style><description>Would be sick

Use a new light sensor</description><name>GG Trench</name><Point><coordinates>-134.32589,58.82618,0</coordinates></Point></Placemark><Placemark><Style><IconStyle><hotSpot x="0.5" xunits="fraction" y="0.5" yunits="fraction"/><Icon><href>http://caltopo.com/icon.png?cfg=flag-1%2C00CD00%231.0</href></Icon></IconStyle></Style><description>Daniel's extracurricular adventure</description><name>PTG 01</name><Point><coordinates>-134.37833,58.39384,0</coordinates></Point></Placemark><Placemark><Style><IconStyle><hotSpot x="0.5" xunits="fraction" y="0.5" yunits="fraction"/><Icon><href>http://caltopo.com/icon.png?cfg=flag-1%2C00CD00%231.0</href></Icon></IconStyle></Style><description/><name>LCG 1</name><Point><coordinates>-134.3434,58.35626,0</coordinates></Point></Placemark><Placemark><Style><IconStyle><hotSpot x="0.5" xunits="fraction" y="0.5" yunits="fraction"/><Icon><href>http://caltopo.com/icon.png?cfg=flag-1%2C00CD00%231.0</href></Icon></IconStyle></Style><description>Accessible from the West Glacier Trail?</description><name>MHG</name><Point><coordinates>-134.55265,58.51091,0</coordinates></Point></Placemark><Placemark><Style><IconStyle><hotSpot x="0.5" xunits="fraction" y="0.5" yunits="fraction"/><Icon><href>http://caltopo.com/icon.png?cfg=flag-1%2C00CD00%231.0</href></Icon></IconStyle></Style><description>Daniel's extracurricular adventure pt. 2</description><name>C30 1</name><Point><coordinates>-133.44981,59.46898,0</coordinates></Point></Placemark><Placemark><Style><IconStyle><hotSpot x="0.5" xunits="fraction" y="0.5" yunits="fraction"/><Icon><href>http://caltopo.com/icon.png?cfg=flag-1%2C00CD00%231.0</href></Icon></IconStyle></Style><description>Probably not possible

Old light sensor</description><name>TKG 5</name><Point><coordinates>-134.18152,58.59832,0</coordinates></Point></Placemark><Placemark><Style><IconStyle><hotSpot x="0.5" xunits="fraction" y="0.5" yunits="fraction"/><Icon><href>http://caltopo.com/icon.png?cfg=flag-1%2C00CD00%231.0</href></Icon></IconStyle></Style><description>Probably unnecessary because of proximity to the C25 microstation/light sensor</description><name>LLG 4</name><Point><coordinates>-134.31644,58.94257,0</coordinates></Point></Placemark><Placemark><Style><IconStyle><hotSpot x="0.5" xunits="fraction" y="0.5" yunits="fraction"/><Icon><href>http://caltopo.com/icon.png?cfg=flag-1%2C00CD00%231.0</href></Icon></IconStyle></Style><description>Daniel's extracurricular adventure pt. 2

Friendly Archie drop?</description><name>C30 3</name><Point><coordinates>-133.80112,59.46348,0</coordinates></Point></Placemark><Placemark><Style><IconStyle><hotSpot x="0.5" xunits="fraction" y="0.5" yunits="fraction"/><Icon><href>http://caltopo.com/icon.png?cfg=flag-1%2C00CD00%231.0</href></Icon></IconStyle></Style><description/><name>LCG 0</name><Point><coordinates>-134.34005,58.38619,0</coordinates></Point></Placemark><Placemark><Style><IconStyle><hotSpot x="0.5" xunits="fraction" y="0.5" yunits="fraction"/><Icon><href>http://caltopo.com/icon.png?cfg=flag-1%2C00CD00%231.0</href></Icon></IconStyle></Style><description/><name>C30 7</name><Point><coordinates>-133.61091613769534,59.544760718165584,0</coordinates></Point></Placemark><Placemark><Style><IconStyle><hotSpot x="0.5" xunits="fraction" y="0.5" yunits="fraction"/><Icon><href>http://caltopo.com/icon.png?cfg=flag-1%2C00CD00%231.0</href></Icon></IconStyle></Style><description>Potentially interesting contrast between this site and MG 2</description><name>DG Upper</name><Point><coordinates>-134.12745,58.78271,0</coordinates></Point></Placemark></Folder><Folder><open>1</open><name>Points</name><Placemark><Style><IconStyle><hotSpot x="0.5" xunits="fraction" y="0.5" yunits="fraction"/><Icon><href>http://caltopo.com/icon.png?cfg=circle-p%2C009090%231.0</href></Icon></IconStyle></Style><description>954 m</description><name>LCG B</name><Point><coordinates>-134.35204315814173,58.393297807471214,0</coordinates></Point></Placemark><Placemark><Style><IconStyle><hotSpot x="0.5" xunits="fraction" y="0.5" yunits="fraction"/><Icon><href>http://caltopo.com/icon.png?cfg=circle-p%2C009090%231.0</href></Icon></IconStyle></Style><description>lwnprio 1827</description><name>MG5</name><Point><coordinates>-134.13322473639866,58.78669569633535,0</coordinates></Point></Placemark><Placemark><Style><IconStyle><hotSpot x="0.5" xunits="fraction" y="0.5" yunits="fraction"/><Icon><href>http://caltopo.com/icon.png?cfg=circle-p%2C009090%231.0</href></Icon></IconStyle></Style><description>mod prio elev 1324</description><name>TR2</name><Point><coordinates>-134.33743147464875,58.58931006214562,0</coordinates></Point></Placemark><Placemark><Style><IconStyle><hotSpot x="0.5" xunits="fraction" y="0.5" yunits="fraction"/><Icon><href>http://caltopo.com/icon.png?cfg=circle-p%2C009090%231.0</href></Icon></IconStyle></Style><description>low prio 1553m</description><name>MG4</name><Point><coordinates>-134.1949673244243,58.769510165929795,0</coordinates></Point></Placemark><Placemark><Style><IconStyle><hotSpot x="0.5" xunits="fraction" y="0.5" yunits="fraction"/><Icon><href>http://caltopo.com/icon.png?cfg=circle-p%2C009090%231.0</href></Icon></IconStyle></Style><description>low pri elev 1830</description><name>MCG6</name><Point><coordinates>-134.1704970826002,58.83636503319721,0</coordinates></Point></Placemark><Placemark><Style><IconStyle><hotSpot x="0.5" xunits="fraction" y="0.5" yunits="fraction"/><Icon><href>http://caltopo.com/icon.png?cfg=circle-p%2C009090%231.0</href></Icon></IconStyle></Style><description>high prio elev 1412m</description><name>MG1</name><Point><coordinates>-134.2122376681483,58.71770432427761,0</coordinates></Point></Placemark><Placemark><Style><IconStyle><hotSpot x="0.5" xunits="fraction" y="0.5" yunits="fraction"/><Icon><href>http://caltopo.com/icon.png?cfg=circle-p%2C009AFF%231.0</href></Icon></IconStyle></Style><description/><name>TKG4</name><Point><coordinates>-134.2370050000313,58.634406552046016,0</coordinates></Point></Placemark><Placemark><Style><IconStyle><hotSpot x="0.5" xunits="fraction" y="0.5" yunits="fraction"/><Icon><href>http://caltopo.com/icon.png?cfg=circle-p%2C009090%231.0</href></Icon></IconStyle></Style><description>low prio 1568m</description><name>NWB2</name><Point><coordinates>-134.54111774787225,58.64312523513877,0</coordinates></Point></Placemark><Placemark><Style><IconStyle><hotSpot x="0.5" xunits="fraction" y="0.5" yunits="fraction"/><Icon><href>http://caltopo.com/icon.png?cfg=circle-p%2C009090%231.0</href></Icon></IconStyle></Style><description>low prio elev 1719m</description><name>LLG2</name><Point><coordinates>-134.09974887648428,58.93563780582074,0</coordinates></Point></Placemark><Placemark><Style><IconStyle><hotSpot x="0.5" xunits="fraction" y="0.5" yunits="fraction"/><Icon><href>http://caltopo.com/icon.png?cfg=circle-p%2C009090%231.0</href></Icon></IconStyle></Style><description>low prio elev 1948m</description><name>LLG3</name><Point><coordinates>-134.21571025335354,58.90933248169631,0</coordinates></Point></Placemark><Placemark><Style><IconStyle><hotSpot x="0.5" xunits="fraction" y="0.5" yunits="fraction"/><Icon><href>http://caltopo.com/icon.png?cfg=circle-p%2C009090%231.0</href></Icon></IconStyle></Style><description>low prio elev 2095</description><name>LLG4</name><Point><coordinates>-134.32272525092554,58.94287964715132,0</coordinates></Point></Placemark><Placemark><Style><IconStyle><hotSpot x="0.5" xunits="fraction" y="0.5" yunits="fraction"/><Icon><href>http://caltopo.com/icon.png?cfg=circle-p%2C009090%231.0</href></Icon></IconStyle></Style><description>low prio elev 1729m</description><name>VLG1</name><Point><coordinates>-134.24180287712576,58.83563576525305,0</coordinates></Point></Placemark><Placemark><Style><IconStyle><hotSpot x="0.5" xunits="fraction" y="0.5" yunits="fraction"/><Icon><href>http://caltopo.com/icon.png?cfg=circle-p%2C009090%231.0</href></Icon></IconStyle></Style><description>mod prio elev 1105</description><name>SWB2</name><Point><coordinates>-134.24970921489034,58.57448448934764,0</coordinates></Point></Placemark><Placemark><Style><IconStyle><hotSpot x="0.5" xunits="fraction" y="0.5" yunits="fraction"/><Icon><href>http://caltopo.com/icon.png?cfg=circle-p%2C009090%231.0</href></Icon></IconStyle></Style><description>1073 m</description><name>LCG C</name><Point><coordinates>-134.34599486740115,58.38089019808674,0</coordinates></Point></Placemark><Placemark><Style><IconStyle><hotSpot x="0.5" xunits="fraction" y="0.5" yunits="fraction"/><Icon><href>http://caltopo.com/icon.png?cfg=circle-p%2C009090%231.0</href></Icon></IconStyle></Style><description>high prio elev 1755</description><name>MG2 </name><Point><coordinates>-134.19494276740033,58.80943211485673,0</coordinates></Point></Placemark><Placemark><Style><IconStyle><hotSpot x="0.5" xunits="fraction" y="0.5" yunits="fraction"/><Icon><href>http://caltopo.com/icon.png?cfg=circle-p%2C009090%231.0</href></Icon></IconStyle></Style><description>high prio elev 1203m</description><name>TKG3</name><Point><coordinates>-134.27775147716804,58.65638584574251,0</coordinates></Point></Placemark><Placemark><Style><IconStyle><hotSpot x="0.5" xunits="fraction" y="0.5" yunits="fraction"/><Icon><href>http://caltopo.com/icon.png?cfg=circle-p%2C009090%231.0</href></Icon></IconStyle></Style><description>High prio elev 992</description><name>TKG5</name><Point><coordinates>-134.1800190488269,58.60387785150451,0</coordinates></Point></Placemark><Placemark><Style><IconStyle><hotSpot x="0.5" xunits="fraction" y="0.5" yunits="fraction"/><Icon><href>http://caltopo.com/icon.png?cfg=circle-p%2C009090%231.0</href></Icon></IconStyle></Style><description>Mod prio elev 1242</description><name>TR1</name><Point><coordinates>-134.31916649352846,58.62100911118095,0</coordinates></Point></Placemark><Placemark><Style><IconStyle><hotSpot x="0.5" xunits="fraction" y="0.5" yunits="fraction"/><Icon><href>http://caltopo.com/icon.png?cfg=circle-p%2C009090%231.0</href></Icon></IconStyle></Style><description>high prio elev 1483</description><name>C161</name><Point><coordinates>-134.41858795585372,58.632957094818835,0</coordinates></Point></Placemark><Placemark><Style><IconStyle><hotSpot x="0.5" xunits="fraction" y="0.5" yunits="fraction"/><Icon><href>http://caltopo.com/icon.png?cfg=circle-p%2C009090%231.0</href></Icon></IconStyle></Style><description>low 1358m</description><name>DG3</name><Point><coordinates>-134.09014860539128,58.720528719274995,0</coordinates></Point></Placemark><Placemark><Style><IconStyle><hotSpot x="0.5" xunits="fraction" y="0.5" yunits="fraction"/><Icon><href>http://caltopo.com/icon.png?cfg=circle-p%2C009090%231.0</href></Icon></IconStyle></Style><description>low pri 1785m</description><name>MG3</name><Point><coordinates>-134.22599241223085,58.814373124591455,0</coordinates></Point></Placemark><Placemark><Style><IconStyle><hotSpot x="0.5" xunits="fraction" y="0.5" yunits="fraction"/><Icon><href>http://caltopo.com/icon.png?cfg=circle-p%2C009090%231.0</href></Icon></IconStyle></Style><description>low prio 1413m</description><name>NWB3</name><Point><coordinates>-134.4447591885436,58.68337704675792,0</coordinates></Point></Placemark><Placemark><Style><IconStyle><hotSpot x="0.5" xunits="fraction" y="0.5" yunits="fraction"/><Icon><href>http://caltopo.com/icon.png?cfg=circle-p%2C009090%231.0</href></Icon></IconStyle></Style><description>low prio 1504m</description><name>NWB1</name><Point><coordinates>-134.51912335608978,58.67402133201161,0</coordinates></Point></Placemark><Placemark><Style><IconStyle><hotSpot x="0.5" xunits="fraction" y="0.5" yunits="fraction"/><Icon><href>http://caltopo.com/icon.png?cfg=circle-p%2C009090%231.0</href></Icon></IconStyle></Style><description>high prio elev 1140m</description><name>LCG H</name><Point><coordinates>-134.34625661541762,58.37228698495599,0</coordinates></Point></Placemark><Placemark><Style><IconStyle><hotSpot x="0.5" xunits="fraction" y="0.5" yunits="fraction"/><Icon><href>http://caltopo.com/icon.png?cfg=circle-p%2C009090%231.0</href></Icon></IconStyle></Style><description>low 1439m</description><name>DG4</name><Point><coordinates>-134.05819735461708,58.75147422748337,0</coordinates></Point></Placemark><Placemark><Style><IconStyle><hotSpot x="0.5" xunits="fraction" y="0.5" yunits="fraction"/><Icon><href>http://caltopo.com/icon.png?cfg=circle-p%2C009090%231.0</href></Icon></IconStyle></Style><description>low prio elev 1867m</description><name>TSQG1</name><Point><coordinates>-134.15794885480867,58.85871913948722,0</coordinates></Point></Placemark><Placemark><Style><IconStyle><hotSpot x="0.5" xunits="fraction" y="0.5" yunits="fraction"/><Icon><href>http://caltopo.com/icon.png?cfg=circle-p%2C009090%231.0</href></Icon></IconStyle></Style><description>ablation stake plus mb pit site</description><name>LCG D</name><Point><coordinates>-134.3550043348143,58.365092016239785,0</coordinates></Point></Placemark><Placemark><Style><IconStyle><hotSpot x="0.5" xunits="fraction" y="0.5" yunits="fraction"/><Icon><href>http://caltopo.com/icon.png?cfg=circle-p%2C009090%231.0</href></Icon></IconStyle></Style><description>high prio elev 1339m</description><name>TKG7</name><Point><coordinates>-134.38279705090406,58.688654456899165,0</coordinates></Point></Placemark><Placemark><Style><IconStyle><hotSpot x="0.5" xunits="fraction" y="0.5" yunits="fraction"/><Icon><href>http://caltopo.com/icon.png?cfg=circle-p%2C009090%231.0</href></Icon></IconStyle></Style><description>elev 1236</description><name>LCG F</name><Point><coordinates>-134.34226039671637,58.361030291158954,0</coordinates></Point></Placemark><Placemark><Style><IconStyle><hotSpot x="0.5" xunits="fraction" y="0.5" yunits="fraction"/><Icon><href>http://caltopo.com/icon.png?cfg=circle-p%2C009090%231.0</href></Icon></IconStyle></Style><description>high prio 1195m elev </description><name>LCG G</name><Point><coordinates>-134.36099482851614,58.3618077674794,0</coordinates></Point></Placemark><Placemark><Style><IconStyle><hotSpot x="0.5" xunits="fraction" y="0.5" yunits="fraction"/><Icon><href>http://caltopo.com/icon.png?cfg=circle-p%2C009090%231.0</href></Icon></IconStyle></Style><description>1245m</description><name>LCG E</name><Point><coordinates>-134.33744659596297,58.36163420113111,0</coordinates></Point></Placemark><Placemark><Style><IconStyle><hotSpot x="0.5" xunits="fraction" y="0.5" yunits="fraction"/><Icon><href>http://caltopo.com/icon.png?cfg=circle-p%2C009090%231.0</href></Icon></IconStyle></Style><description>835 m</description><name>LCG A</name><Point><coordinates>-134.3619183332226,58.40060461690087,0</coordinates></Point></Placemark></Folder></Document></kml>