<?xml version="1.0"?>
<gpx xmlns="http://www.topografix.com/GPX/1/1" xmlns:gpxx="http://www.garmin.com/xmlschemas/GpxExtensions/v3" creator="CALTOPO" version="1.1"><metadata><name><![CDATA[JIFLR]]></name></metadata><wpt lat="59.53528" lon="-133.85304"><name>C30 6</name><desc>Daniel's extracurricular adventure pt. 2

Friendly Archie drop?</desc></wpt><wpt lat="58.393297807471214" lon="-134.35204315814173"><name>LCG B</name><desc>954 m</desc></wpt><wpt lat="59.05927" lon="-134.08676"><name>LLG Lower</name><desc>As a day trip from 26? Or anywhere further down the Llewellyn from 26. If not possible, then put a stake at F10

New light sensor</desc></wpt><wpt lat="58.57577" lon="-134.41086"><name>MHG 01</name><desc>Ice divide between C16 and upper Mendenhall? Would be an interesting spot and probably pretty safe to access.</desc></wpt><wpt lat="58.78669569633535" lon="-134.13322473639866"><name>MG5</name><desc>lwnprio 1827</desc></wpt><wpt lat="58.58931006214562" lon="-134.33743147464875"><name>TR2</name><desc>mod prio elev 1324</desc></wpt><wpt lat="58.37218" lon="-134.34606"><name>LCG-H</name></wpt><wpt lat="58.93407" lon="-134.09466"><name>LLG2</name><desc>New light sensor</desc></wpt><wpt lat="58.769510165929795" lon="-134.1949673244243"><name>MG4</name><desc>low prio 1553m</desc></wpt><wpt lat="59.43124" lon="-133.82009"><name>C30 2</name><desc>Daniel's extracurricular adventure pt. 2

Friendly Archie drop?</desc></wpt><wpt lat="58.72153" lon="-134.21448"><name>MG 1</name><desc>New light sensor</desc></wpt><wpt lat="58.83636503319721" lon="-134.1704970826002"><name>MCG6</name><desc>low pri elev 1830</desc></wpt><wpt lat="58.71770432427761" lon="-134.2122376681483"><name>MG1</name><desc>high prio elev 1412m</desc></wpt><wpt lat="58.59456" lon="-134.50321"><name>C16 A</name><desc>Long-shot access from West Glacier Trail or from the other C16 pit.</desc></wpt><wpt lat="59.52566" lon="-133.87124"><name>C30 5</name><desc>Daniel's extracurricular adventure pt. 2

Friendly Archie drop?</desc></wpt><wpt lat="58.634406552046016" lon="-134.2370050000313"><name>TKG4</name></wpt><wpt lat="58.85851" lon="-134.15165"><name>TSQG1</name><desc>4 m + 4 m + 2 m flagging pole
New light sensor</desc></wpt><wpt lat="58.64312523513877" lon="-134.54111774787225"><name>NWB2</name><desc>low prio 1568m</desc></wpt><wpt lat="58.93563780582074" lon="-134.09974887648428"><name>LLG2</name><desc>low prio elev 1719m</desc></wpt><wpt lat="58.83018" lon="-134.24246"><name>VLG Icefall</name><desc>It would be interesting to know if the airflow through here is substantially different from on the main branch.</desc></wpt><wpt lat="58.90933248169631" lon="-134.21571025335354"><name>LLG3</name><desc>low prio elev 1948m</desc></wpt><wpt lat="58.63622" lon="-134.24194"><name>TKG 4</name><desc>Worth a try because it is one of the index sites</desc></wpt><wpt lat="58.94287964715132" lon="-134.32272525092554"><name>LLG4</name><desc>low prio elev 2095</desc></wpt><wpt lat="58.41713" lon="-134.34168"><name>LCG Thomas</name><desc>Daniel's extracurricular adventure
Single-sensor pole?</desc></wpt><wpt lat="58.83563576525305" lon="-134.24180287712576"><name>VLG1</name><desc>low prio elev 1729m</desc></wpt><wpt lat="58.57448448934764" lon="-134.24970921489034"><name>SWB2</name><desc>mod prio elev 1105</desc></wpt><wpt lat="58.38089019808674" lon="-134.34599486740115"><name>LCG C</name><desc>1073 m</desc></wpt><wpt lat="59.50815" lon="-133.87253"><name>C30 4</name><desc>Daniel's extracurricular adventure pt. 2

Friendly Archie drop?</desc></wpt><wpt lat="58.82618" lon="-134.32589"><name>GG Trench</name><desc>Would be sick

Use a new light sensor</desc></wpt><wpt lat="58.8093" lon="-134.1925"><name>MG 2</name><desc>Will play well with micro stations at 8 and 18

4 m + 4 m + 2 m flagging pole
New light sensor</desc></wpt><wpt lat="58.68729" lon="-134.36897"><name>TKG 7</name><desc>Could be swapped in instead of NWB 3. If so, use new light sensor</desc></wpt><wpt lat="58.83596" lon="-134.16779"><name>MCG 6</name><desc>4 m + 4 m + 2 m flagging pole

New light sensor</desc></wpt><wpt lat="58.68443" lon="-134.44794"><name>NWB 3</name><desc>New light sensor here or TKG 7</desc></wpt><wpt lat="58.80943211485673" lon="-134.19494276740033"><name>MG2 </name><desc>high prio elev 1755</desc></wpt><wpt lat="58.65638584574251" lon="-134.27775147716804"><name>TKG3</name><desc>high prio elev 1203m</desc></wpt><wpt lat="58.57147" lon="-134.23645"><name>SWB 2</name><desc>stake at this site and/or TR 2

If this site isn't possible, anywhere on/around the Southwest Branch would go a long way to fill the gap between C17 and C10.

New light sensor on one of TR 2 or SWB 2</desc></wpt><wpt lat="59.43539" lon="-133.48063"><name>C30 0</name><desc>Daniel's extracurricular adventure pt. 2</desc></wpt><wpt lat="58.58866" lon="-134.32297"><name>TR 2</name><desc>stake at this site or SWB 2

New light sensor on one of TR 2 or SWB 2</desc></wpt><wpt lat="58.39384" lon="-134.37833"><name>PTG 01</name><desc>Daniel's extracurricular adventure</desc></wpt><wpt lat="58.60387785150451" lon="-134.1800190488269"><name>TKG5</name><desc>High prio elev 992</desc></wpt><wpt lat="58.4674" lon="-134.32932"><name>SWB Lower</name><desc>Daniel's extracurricular adventure</desc></wpt><wpt lat="58.62100911118095" lon="-134.31916649352846"><name>TR1</name><desc>Mod prio elev 1242</desc></wpt><wpt lat="58.35626" lon="-134.3434"><name>LCG 1</name></wpt><wpt lat="58.51091" lon="-134.55265"><name>MHG</name><desc>Accessible from the West Glacier Trail?</desc></wpt><wpt lat="58.632957094818835" lon="-134.41858795585372"><name>C161</name><desc>high prio elev 1483</desc></wpt><wpt lat="58.43558" lon="-134.33164"><name>SWB Upper</name><desc>Daniel's extracurricular adventure

Avoiding big cracks but hopefully far enough over the ridge to avoid crazy wind and rime 

New light sensor</desc></wpt><wpt lat="58.36193" lon="-134.36086"><name>LCG-G</name></wpt><wpt lat="59.46898" lon="-133.44981"><name>C30 1</name><desc>Daniel's extracurricular adventure pt. 2</desc></wpt><wpt lat="59.6933" lon="-133.3754"><name>C30 8</name><desc>Daniel's extracurricular adventure pt. 2
</desc></wpt><wpt lat="58.59832" lon="-134.18152"><name>TKG 5</name><desc>Probably not possible

Old light sensor</desc></wpt><wpt lat="58.720528719274995" lon="-134.09014860539128"><name>DG3</name><desc>low 1358m</desc></wpt><wpt lat="59.34212" lon="-134.10015"><name>C29</name></wpt><wpt lat="58.63229" lon="-134.42562"><name>C16 1</name><desc>New light sensor</desc></wpt><wpt lat="58.814373124591455" lon="-134.22599241223085"><name>MG3</name><desc>low pri 1785m</desc></wpt><wpt lat="58.90908" lon="-134.20555"><name>LLG 3</name><desc>More points on the boundary the better

Old light sensor</desc></wpt><wpt lat="58.94257" lon="-134.31644"><name>LLG 4</name><desc>Probably unnecessary because of proximity to the C25 microstation/light sensor</desc></wpt><wpt lat="58.64372" lon="-134.54407"><name>NWB 2</name><desc>New light sensor</desc></wpt><wpt lat="58.65051" lon="-134.28726"><name>TKG 3</name><desc>Possibly most attainable Taku site. Can be deprioritized if TKG 4 and 5 go.

New light sensor</desc></wpt><wpt lat="58.68337704675792" lon="-134.4447591885436"><name>NWB3</name><desc>low prio 1413m</desc></wpt><wpt lat="58.36653" lon="-134.38004"><name>PTG 00</name><desc>Daniel's extracurricular adventure</desc></wpt><wpt lat="58.67402133201161" lon="-134.51912335608978"><name>NWB1</name><desc>low prio 1504m</desc></wpt><wpt lat="58.37228698495599" lon="-134.34625661541762"><name>LCG H</name><desc>high prio elev 1140m</desc></wpt><wpt lat="58.75147422748337" lon="-134.05819735461708"><name>DG4</name><desc>low 1439m</desc></wpt><wpt lat="58.72545" lon="-134.09088"><name>DG 3</name><desc>Old pendant light sensor

One stake on the Demorest would b e interesting. Assume slightly less melt than TKG 4/5</desc></wpt><wpt lat="59.46348" lon="-133.80112"><name>C30 3</name><desc>Daniel's extracurricular adventure pt. 2

Friendly Archie drop?</desc></wpt><wpt lat="58.62979" lon="-134.16092"><name>TKA</name><desc>New pendant light sensor on one of Taku A/B. Alternatively, old light sensor on both A/B and new light sensor at C10 with microstation</desc></wpt><wpt lat="58.85871913948722" lon="-134.15794885480867"><name>TSQG1</name><desc>low prio elev 1867m</desc></wpt><wpt lat="58.365092016239785" lon="-134.3550043348143"><name>LCG D</name><desc>ablation stake plus mb pit site</desc></wpt><wpt lat="58.688654456899165" lon="-134.38279705090406"><name>TKG7</name><desc>high prio elev 1339m</desc></wpt><wpt lat="58.38619" lon="-134.34005"><name>LCG 0</name></wpt><wpt lat="58.361030291158954" lon="-134.34226039671637"><name>LCG F</name><desc>elev 1236</desc></wpt><wpt lat="59.544760718165584" lon="-133.61091613769534"><name>C30 7</name></wpt><wpt lat="58.3618077674794" lon="-134.36099482851614"><name>LCG G</name><desc>high prio 1195m elev </desc></wpt><wpt lat="58.36163420113111" lon="-134.33744659596297"><name>LCG E</name><desc>1245m</desc></wpt><wpt lat="58.40060461690087" lon="-134.3619183332226"><name>LCG A</name><desc>835 m</desc></wpt><wpt lat="58.65739" lon="-134.18847"><name>TKB</name><desc>New pendant light sensor on one of Taku A/B. Alternatively, old light sensor on both A/B and new light sensor at C10 with microstation</desc></wpt><wpt lat="58.8193" lon="-134.2834"><name>Heather Camp</name><desc>Old light sensor</desc></wpt><wpt lat="58.80744" lon="-134.13049"><name>C8 Moore</name><desc>Use old sensors here, but still collect light data from top of pole.</desc></wpt><wpt lat="58.78271" lon="-134.12745"><name>DG Upper</name><desc>Potentially interesting contrast between this site and MG 2</desc></wpt></gpx>